start=new Date('2023-05-07T00:00:00.000Z').valueOf();
sats=[{"SEMIMAJOR_AXIS":"6925.375","LAUNCH_DATE":"2020-10-06","BSTAR":"0.00014913000000","MEAN_ANOMALY":"285.1869","OBJECT_ID":"2020-070R","DECAY_DATE":null,"RA_OF_ASC_NODE":"158.1567","RCS_SIZE":"LARGE","APOAPSIS":"548.345","SITE":"AFETR","PERIOD":"95.593","MEAN_ELEMENT_THEORY":"SGP4","OBJECT_NAME":"STARLINK-1698","MEAN_MOTION":"15.06391265","EPOCH":"2023-05-06T06:59:07.643616","CLASSIFICATION_TYPE":"U","EPHEMERIS_TYPE":"0","OBJECT_TYPE":"PAYLOAD","MEAN_MOTION_DOT":"0.00001940","NORAD_CAT_ID":"46547","ECCENTRICITY":"0.00015950","INCLINATION":"53.0516","GP_ID":"231348186","COUNTRY_CODE":"US","ELEMENT_SET_NO":"999","CENTER_NAME":"EARTH","TLE_LINE2":"2 46547  53.0516 158.1567 0001595  74.9296 285.1869 15.06391265142990","ARG_OF_PERICENTER":"74.9296","PERIAPSIS":"546.136","FILE":"3902298","MEAN_MOTION_DDOT":"0.0000000000000","REF_FRAME":"TEME","REV_AT_EPOCH":"14299","TLE_LINE1":"1 46547U 20070R   23126.29106069  .00001940  00000-0  14913-3 0  9997","TIME_SYSTEM":"UTC"},{"DECAY_DATE":null,"RCS_SIZE":"LARGE","RA_OF_ASC_NODE":"158.1099","APOAPSIS":"548.163","MEAN_ANOMALY":"279.0890","OBJECT_ID":"2020-070S","SEMIMAJOR_AXIS":"6925.372","LAUNCH_DATE":"2020-10-06","BSTAR":"0.00010081000000","CLASSIFICATION_TYPE":"U","EPHEMERIS_TYPE":"0","OBJECT_TYPE":"PAYLOAD","MEAN_ELEMENT_THEORY":"SGP4","OBJECT_NAME":"STARLINK-1699","MEAN_MOTION":"15.06392384","EPOCH":"2023-05-06T07:16:24.916224","PERIOD":"95.593","SITE":"AFETR","ELEMENT_SET_NO":"999","GP_ID":"231348436","COUNTRY_CODE":"US","MEAN_MOTION_DOT":"0.00001220","ECCENTRICITY":"0.00013370","NORAD_CAT_ID":"46548","INCLINATION":"53.0513","REF_FRAME":"TEME","REV_AT_EPOCH":"14299","TLE_LINE1":"1 46548U 20070S   23126.30306616  .00001220  00000-0  10081-3 0  9993","TIME_SYSTEM":"UTC","FILE":"3902298","MEAN_MOTION_DDOT":"0.0000000000000","PERIAPSIS":"546.311","ARG_OF_PERICENTER":"81.0250","CENTER_NAME":"EARTH","TLE_LINE2":"2 46548  53.0513 158.1099 0001337  81.0250 279.0890 15.06392384142990"},{"ARG_OF_PERICENTER":"110.0140","PERIAPSIS":"546.352","CENTER_NAME":"EARTH","TLE_LINE2":"2 46549  53.0524 157.3847 0001270 110.0140 250.0986 15.06394243143017","TIME_SYSTEM":"UTC","TLE_LINE1":"1 46549U 20070T   23126.46525237  .00005289  00000-0  37375-3 0  9997","REV_AT_EPOCH":"14301","REF_FRAME":"TEME","MEAN_MOTION_DDOT":"0.0000000000000","FILE":"3902298","INCLINATION":"53.0524","NORAD_CAT_ID":"46549","ECCENTRICITY":"0.00012700","MEAN_MOTION_DOT":"0.00005289","ELEMENT_SET_NO":"999","COUNTRY_CODE":"US","GP_ID":"231349186","PERIOD":"95.593","SITE":"AFETR","OBJECT_TYPE":"PAYLOAD","EPHEMERIS_TYPE":"0","CLASSIFICATION_TYPE":"U","EPOCH":"2023-05-06T11:09:57.804768","MEAN_MOTION":"15.06394243","OBJECT_NAME":"STARLINK-1700","MEAN_ELEMENT_THEORY":"SGP4","OBJECT_ID":"2020-070T","MEAN_ANOMALY":"250.0986","BSTAR":"0.00037375000000","SEMIMAJOR_AXIS":"6925.366","LAUNCH_DATE":"2020-10-06","APOAPSIS":"548.111","RCS_SIZE":"LARGE","RA_OF_ASC_NODE":"157.3847","DECAY_DATE":null},{"ELEMENT_SET_NO":"999","GP_ID":"231349429","COUNTRY_CODE":"US","MEAN_MOTION_DOT":"0.00004298","INCLINATION":"53.0522","NORAD_CAT_ID":"46550","ECCENTRICITY":"0.00016550","REV_AT_EPOCH":"14299","REF_FRAME":"TEME","TIME_SYSTEM":"UTC","TLE_LINE1":"1 46550U 20070U   23126.31781340  .00004298  00000-0  30725-3 0  9993","FILE":"3902298","MEAN_MOTION_DDOT":"0.0000000000000","PERIAPSIS":"546.070","ARG_OF_PERICENTER":"86.1655","TLE_LINE2":"2 46550  53.0522 158.0506 0001655  86.1655 273.9523 15.06399226142991","CENTER_NAME":"EARTH","DECAY_DATE":null,"APOAPSIS":"548.362","RA_OF_ASC_NODE":"158.0506","RCS_SIZE":"LARGE","MEAN_ANOMALY":"273.9523","OBJECT_ID":"2020-070U","SEMIMAJOR_AXIS":"6925.351","LAUNCH_DATE":"2020-10-06","BSTAR":"0.00030725000000","CLASSIFICATION_TYPE":"U","OBJECT_TYPE":"PAYLOAD","EPHEMERIS_TYPE":"0","EPOCH":"2023-05-06T07:37:39.077760","OBJECT_NAME":"STARLINK-1701","MEAN_ELEMENT_THEORY":"SGP4","MEAN_MOTION":"15.06399226","SITE":"AFETR","PERIOD":"95.592"},{"MEAN_MOTION_DOT":"0.00002950","NORAD_CAT_ID":"46553","ECCENTRICITY":"0.00013840","INCLINATION":"53.0520","ELEMENT_SET_NO":"999","GP_ID":"231347686","COUNTRY_CODE":"US","PERIAPSIS":"546.270","ARG_OF_PERICENTER":"88.6287","CENTER_NAME":"EARTH","TLE_LINE2":"2 46553  53.0520 128.4122 0001384  88.6287 271.4860 15.06395192143406","REF_FRAME":"TEME","REV_AT_EPOCH":"14340","TLE_LINE1":"1 46553U 20070X   23126.23948245  .00002950  00000-0  21688-3 0  9997","TIME_SYSTEM":"UTC","FILE":"3902298","MEAN_MOTION_DDOT":"0.0000000000000","MEAN_ANOMALY":"271.4860","OBJECT_ID":"2020-070X","SEMIMAJOR_AXIS":"6925.363","LAUNCH_DATE":"2020-10-06","BSTAR":"0.00021688000000","DECAY_DATE":null,"RA_OF_ASC_NODE":"128.4122","RCS_SIZE":"LARGE","APOAPSIS":"548.187","PERIOD":"95.592","SITE":"AFETR","CLASSIFICATION_TYPE":"U","EPHEMERIS_TYPE":"0","OBJECT_TYPE":"PAYLOAD","OBJECT_NAME":"STARLINK-1664","MEAN_ELEMENT_THEORY":"SGP4","MEAN_MOTION":"15.06395192","EPOCH":"2023-05-06T05:44:51.283680"},{"OBJECT_NAME":"STARLINK-1671","MEAN_ELEMENT_THEORY":"SGP4","MEAN_MOTION":"15.06390557","EPOCH":"2023-05-06T10:10:54.046560","EPHEMERIS_TYPE":"0","OBJECT_TYPE":"PAYLOAD","CLASSIFICATION_TYPE":"U","PERIOD":"95.593","SITE":"AFETR","RCS_SIZE":"LARGE","RA_OF_ASC_NODE":"142.5727","APOAPSIS":"548.249","DECAY_DATE":null,"BSTAR":"0.00011730000000","LAUNCH_DATE":"2020-10-06","SEMIMAJOR_AXIS":"6925.377","OBJECT_ID":"2020-070Y","MEAN_ANOMALY":"259.6975","MEAN_MOTION_DDOT":"0.0000000000000","FILE":"3902298","TLE_LINE1":"1 46554U 20070Y   23126.42423665  .00001466  00000-0  11730-3 0  9991","TIME_SYSTEM":"UTC","REF_FRAME":"TEME","REV_AT_EPOCH":"14322","TLE_LINE2":"2 46554  53.0517 142.5727 0001454 100.4178 259.6975 15.06390557143226","CENTER_NAME":"EARTH","ARG_OF_PERICENTER":"100.4178","PERIAPSIS":"546.236","COUNTRY_CODE":"US","GP_ID":"231347936","ELEMENT_SET_NO":"999","NORAD_CAT_ID":"46554","ECCENTRICITY":"0.00014540","INCLINATION":"53.0517","MEAN_MOTION_DOT":"0.00001466"},{"INCLINATION":"53.0522","ECCENTRICITY":"0.00012580","NORAD_CAT_ID":"46556","MEAN_MOTION_DOT":"0.00002756","COUNTRY_CODE":"US","GP_ID":"231348688","ELEMENT_SET_NO":"999","CENTER_NAME":"EARTH","TLE_LINE2":"2 46556  53.0522 157.0097 0001258  87.7101 272.4032 15.06400182143032","PERIAPSIS":"546.342","ARG_OF_PERICENTER":"87.7101","MEAN_MOTION_DDOT":"0.0000000000000","FILE":"3902298","TIME_SYSTEM":"UTC","TLE_LINE1":"1 46556U 20070AA  23126.55002051  .00002756  00000-0  20381-3 0  9994","REV_AT_EPOCH":"14303","REF_FRAME":"TEME","BSTAR":"0.00020381000000","LAUNCH_DATE":"2020-10-06","SEMIMAJOR_AXIS":"6925.348","OBJECT_ID":"2020-070AA","MEAN_ANOMALY":"272.4032","APOAPSIS":"548.084","RCS_SIZE":"LARGE","RA_OF_ASC_NODE":"157.0097","DECAY_DATE":null,"PERIOD":"95.592","SITE":"AFETR","EPOCH":"2023-05-06T13:12:01.772064","OBJECT_NAME":"STARLINK-1676","MEAN_ELEMENT_THEORY":"SGP4","MEAN_MOTION":"15.06400182","OBJECT_TYPE":"PAYLOAD","EPHEMERIS_TYPE":"0","CLASSIFICATION_TYPE":"U"},{"INCLINATION":"53.0515","ECCENTRICITY":"0.00013830","NORAD_CAT_ID":"46557","MEAN_MOTION_DOT":"0.00002924","ELEMENT_SET_NO":"999","COUNTRY_CODE":"US","GP_ID":"231348930","PERIAPSIS":"546.260","ARG_OF_PERICENTER":"87.9490","TLE_LINE2":"2 46557  53.0515 142.9971 0001383  87.9490 272.1657 15.06398595143215","CENTER_NAME":"EARTH","TIME_SYSTEM":"UTC","TLE_LINE1":"1 46557U 20070AB  23126.32840743  .00002924  00000-0  21512-3 0  9992","REV_AT_EPOCH":"14321","REF_FRAME":"TEME","MEAN_MOTION_DDOT":"0.0000000000000","FILE":"3902298","OBJECT_ID":"2020-070AB","MEAN_ANOMALY":"272.1657","BSTAR":"0.00021512000000","SEMIMAJOR_AXIS":"6925.353","LAUNCH_DATE":"2020-10-06","APOAPSIS":"548.176","RCS_SIZE":"LARGE","RA_OF_ASC_NODE":"142.9971","DECAY_DATE":null,"PERIOD":"95.592","SITE":"AFETR","OBJECT_TYPE":"PAYLOAD","EPHEMERIS_TYPE":"0","CLASSIFICATION_TYPE":"U","EPOCH":"2023-05-06T07:52:54.401952","MEAN_MOTION":"15.06398595","OBJECT_NAME":"STARLINK-1679","MEAN_ELEMENT_THEORY":"SGP4"},{"ARG_OF_PERICENTER":"93.3007","PERIAPSIS":"546.395","CENTER_NAME":"EARTH","TLE_LINE2":"2 46558  53.0521 142.9669 0001224  93.3007 266.8122 15.06390433143182","TIME_SYSTEM":"UTC","TLE_LINE1":"1 46558U 20070AC  23126.33577438  .00001657  00000-0  13012-3 0  9990","REV_AT_EPOCH":"14318","REF_FRAME":"TEME","MEAN_MOTION_DDOT":"0.0000000000000","FILE":"3902298","INCLINATION":"53.0521","ECCENTRICITY":"0.00012240","NORAD_CAT_ID":"46558","MEAN_MOTION_DOT":"0.00001657","ELEMENT_SET_NO":"999","COUNTRY_CODE":"US","GP_ID":"231348187","SITE":"AFETR","PERIOD":"95.593","OBJECT_TYPE":"PAYLOAD","EPHEMERIS_TYPE":"0","CLASSIFICATION_TYPE":"U","EPOCH":"2023-05-06T08:03:30.906432","OBJECT_NAME":"STARLINK-1680","MEAN_ELEMENT_THEORY":"SGP4","MEAN_MOTION":"15.06390433","OBJECT_ID":"2020-070AC","MEAN_ANOMALY":"266.8122","BSTAR":"0.00013012000000","LAUNCH_DATE":"2020-10-06","SEMIMAJOR_AXIS":"6925.378","APOAPSIS":"548.091","RCS_SIZE":"LARGE","RA_OF_ASC_NODE":"142.9669","DECAY_DATE":null},{"PERIOD":"95.592","SITE":"AFETR","CLASSIFICATION_TYPE":"U","OBJECT_TYPE":"PAYLOAD","EPHEMERIS_TYPE":"0","EPOCH":"2023-05-06T09:21:06.116832","OBJECT_NAME":"STARLINK-1681","MEAN_MOTION":"15.06395193","MEAN_ELEMENT_THEORY":"SGP4","MEAN_ANOMALY":"258.7473","OBJECT_ID":"2020-070AD","LAUNCH_DATE":"2020-10-06","SEMIMAJOR_AXIS":"6925.363","BSTAR":"0.00012307000000","DECAY_DATE":null,"APOAPSIS":"548.139","RCS_SIZE":"LARGE","RA_OF_ASC_NODE":"127.7140","PERIAPSIS":"546.318","ARG_OF_PERICENTER":"101.3663","CENTER_NAME":"EARTH","TLE_LINE2":"2 46559  53.0523 127.7140 0001315 101.3663 258.7473 15.06395193143423","REV_AT_EPOCH":"14342","REF_FRAME":"TEME","TIME_SYSTEM":"UTC","TLE_LINE1":"1 46559U 20070AD  23126.38965413  .00001552  00000-0  12307-3 0  9990","FILE":"3902298","MEAN_MOTION_DDOT":"0.0000000000000","MEAN_MOTION_DOT":"0.00001552","INCLINATION":"53.0523","ECCENTRICITY":"0.00013150","NORAD_CAT_ID":"46559","ELEMENT_SET_NO":"999","GP_ID":"231348437","COUNTRY_CODE":"US"}];
